[{"OBJECT_NAME":"EUCROPIS","OBJECT_ID":"2018-099BB","EPOCH":"2026-03-09T17:11:26.691360","MEAN_MOTION":15.19070978,"ECCENTRICITY":0.00039821,"INCLINATION":97.4349,"RA_OF_ASC_NODE":126.0391,"ARG_OF_PERICENTER":286.1281,"MEAN_ANOMALY":73.9515,"EPHEMERIS_TYPE":0,"CLASSIFICATION_TYPE":"U","NORAD_CAT_ID":43807,"ELEMENT_SET_NO":999,"REV_AT_EPOCH":39735,"BSTAR":0.00041485658,"MEAN_MOTION_DOT":8.636e-5,"MEAN_MOTION_DDOT":0},{"OBJECT_NAME":"STARLINK-6126","OBJECT_ID":"2023-046AJ","EPOCH":"2026-03-09T22:00:01.999584","MEAN_MOTION":15.125351,"ECCENTRICITY":0.00023023,"INCLINATION":42.9998,"RA_OF_ASC_NODE":144.9048,"ARG_OF_PERICENTER":271.6853,"MEAN_ANOMALY":109.3366,"EPHEMERIS_TYPE":0,"CLASSIFICATION_TYPE":"U","NORAD_CAT_ID":56124,"ELEMENT_SET_NO":999,"REV_AT_EPOCH":577,"BSTAR":0.0675572,"MEAN_MOTION_DOT":0.01299298,"MEAN_MOTION_DDOT":0}]
